ONEWEB-0624             
1 55165U 23004AB  23255.91667824  .00000013  00000+0  00000+0 0  9993
2 55165  87.9128 191.0222 0001542 305.6170 186.6326 13.29823669  5253
ONEWEB-0625             
1 55166U 23004AC  23255.84394632 -.00000014  00000+0 -57144-4 0  9999
2 55166  87.9600 206.2612 0002674  78.2927 281.8512 13.30724349 34783
ONEWEB-0626             
1 55167U 23004AD  23255.91667824  .00000013  00000+0  00000+0 0  9995
2 55167  87.9455 206.2282 0003573  82.4854 119.7749 13.24424726  5306
ONEWEB-0627             
1 55168U 23004AE  23255.91667824  .00000013  00000+0  00000+0 0  9996
2 55168  87.9436 206.2521 0002405  43.3748 107.3680 13.25602905  5230
ONEWEB-0628             
1 55169U 23004AF  23255.91667824  .00000013  00000+0  00000+0 0  9997
2 55169  87.9330 191.1133 0006484 151.2620 195.1845 13.26755840  5386
ONEWEB-0629             
1 55170U 23004AG  23255.91667824  .00000013  00000+0  00000+0 0  9999
2 55170  87.9464 206.2290 0002496  82.4997 182.5522 13.24654707  5187
ONEWEB-0631             
1 55171U 23004AH  23255.91667824 -.00803142  00000+0 -22622+0 0  9990
2 55171  86.7380 183.4474 0003665 107.8666  79.3904 14.49015814  5675
ONEWEB-0709             
1 55172U 23004AJ  23255.86559914 -.00000423  00000+0 -12288-2 0  9996
2 55172  87.8950 221.3844 0002636  60.9836 299.1556 13.11413600 33713
